{"type": "FeatureCollection", "features": [ {"type": "Feature", "properties": {"norad_id": 33939, "name": "COSMOS 2251 DEB", "group": "cosmos-2251-debris", "lat": -32.526275240096965, "lon": -94.4226062273009, "alt_km": 574.9301929753565, "timestamp": "2025-12-15T11:38:37.545207+00:00", "meta": {"OBJECT_NAME": "COSMOS 2251 DEB", "OBJECT_ID": "1993-036EU", "EPOCH": "2025-12-14T13:53:09.136608", "MEAN_MOTION": 15.00066228, "ECCENTRICITY": 0.00038454, "INCLINATION": 74.0062, "RA_OF_ASC_NODE": 76.8832, "ARG_OF_PERICENTER": 48.6281, "MEAN_ANOMALY": 311.5236, "EPHEMERIS_TYPE": 0, "CLASSIFICATION_TYPE": "U", "NORAD_CAT_ID": 33939, "ELEMENT_SET_NO": 999, "REV_AT_EPOCH": 88780, "BSTAR": 0.0023666392, "MEAN_MOTION_DOT": 0.00029582, "MEAN_MOTION_DDOT": 0}, "tle": {"line1": "1 33939U 93036EU  25348.57857797  .00029582  00000+0  23666-2 0  9995", "line2": "2 33939  74.0062  76.8832 0003845  48.6281 311.5236 15.00066228887803"}}, "geometry": {"type": "Point", "coordinates": [-94.4226062273009, -32.526275240096965]}}, {"type": "Feature", "properties": {"norad_id": 33940, "name": "COSMOS 2251 DEB", "group": "cosmos-2251-debris", "lat": -58.51640660399336, "lon": 110.40906930096713, "alt_km": 702.2766820393535, "timestamp": "2025-12-15T11:38:37.545216+00:00", "meta": {"OBJECT_NAME": "COSMOS 2251 DEB", "OBJECT_ID": "1993-036EV", "EPOCH": "2025-12-14T16:15:01.334592", "MEAN_MOTION": 14.58818526, "ECCENTRICITY": 0.00112174, "INCLINATION": 74.0393, "RA_OF_ASC_NODE": 139.8078, "ARG_OF_PERICENTER": 219.7679, "MEAN_ANOMALY": 155.6788, "EPHEMERIS_TYPE": 0, "CLASSIFICATION_TYPE": "U", "NORAD_CAT_ID": 33940, "ELEMENT_SET_NO": 999, "REV_AT_EPOCH": 88622, "BSTAR": 0.0010016984, "MEAN_MOTION_DOT": 4.663e-05, "MEAN_MOTION_DDOT": 0}, "tle": {"line1": "1 33940U 93036EV  25348.67709878  .00004663  00000+0  10017-2 0  9993", "line2": "2 33940  74.0393 139.8078 0011217 219.7679 155.6788 14.58818526886220"}}, "geometry": {"type": "Point", "coordinates": [110.40906930096713, -58.51640660399336]}}, {"type": "Feature", "properties": {"norad_id": 33942, "name": "COSMOS 2251 DEB", "group": "cosmos-2251-debris", "lat": -65.47276456926731, "lon": -129.07851263849324, "alt_km": 765.4992026757418, "timestamp": "2025-12-15T11:38:37.545226+00:00", "meta": {"OBJECT_NAME": "COSMOS 2251 DEB", "OBJECT_ID": "1993-036EX", "EPOCH": "2025-12-14T23:00:18.387360", "MEAN_MOTION": 14.37991727, "ECCENTRICITY": 0.00204202, "INCLINATION": 74.0366, "RA_OF_ASC_NODE": 270.7425, "ARG_OF_PERICENTER": 353.5831, "MEAN_ANOMALY": 90.4846, "EPHEMERIS_TYPE": 0, "CLASSIFICATION_TYPE": "U", "NORAD_CAT_ID": 33942, "ELEMENT_SET_NO": 999, "REV_AT_EPOCH": 88166, "BSTAR": 0.00023779978, "MEAN_MOTION_DOT": 6.94e-06, "MEAN_MOTION_DDOT": 0}, "tle": {"line1": "1 33942U 93036EX  25348.95854615  .00000694  00000+0  23780-3 0  9998", "line2": "2 33942  74.0366 270.7425 0020420 353.5831  90.4846 14.37991727881662"}}, "geometry": {"type": "Point", "coordinates": [-129.07851263849324, -65.47276456926731]}}, {"type": "Feature", "properties": {"norad_id": 33944, "name": "COSMOS 2251 DEB", "group": "cosmos-2251-debris", "lat": 20.649673917357262, "lon": 117.68417045744883, "alt_km": 800.7968849041181, "timestamp": "2025-12-15T11:38:37.545236+00:00", "meta": {"OBJECT_NAME": "COSMOS 2251 DEB", "OBJECT_ID": "1993-036EZ", "EPOCH": "2025-12-14T21:49:29.629344", "MEAN_MOTION": 14.37347739, "ECCENTRICITY": 0.01122592, "INCLINATION": 74.0403, "RA_OF_ASC_NODE": 304.9343, "ARG_OF_PERICENTER": 43.9739, "MEAN_ANOMALY": 15.0613, "EPHEMERIS_TYPE": 0, "CLASSIFICATION_TYPE": "U", "NORAD_CAT_ID": 33944, "ELEMENT_SET_NO": 999, "REV_AT_EPOCH": 88059, "BSTAR": 0.00037009859, "MEAN_MOTION_DOT": 1.161e-05, "MEAN_MOTION_DDOT": 0}, "tle": {"line1": "1 33944U 93036EZ  25348.90937071  .00001161  00000+0  37010-3 0  9994", "line2": "2 33944  74.0403 304.9343 0112259  43.9739  15.0613 14.37347739880598"}}, "geometry": {"type": "Point", "coordinates": [117.68417045744883, 20.649673917357262]}}, {"type": "Feature", "properties": {"norad_id": 33945, "name": "COSMOS 2251 DEB", "group": "cosmos-2251-debris", "lat": -69.70230677406012, "lon": -109.49958127279031, "alt_km": 787.1211875273893, "timestamp": "2025-12-15T11:38:37.545246+00:00", "meta": {"OBJECT_NAME": "COSMOS 2251 DEB", "OBJECT_ID": "1993-036FA", "EPOCH": "2025-12-14T20:56:25.963872", "MEAN_MOTION": 14.34602537, "ECCENTRICITY": 0.00219963, "INCLINATION": 74.0299, "RA_OF_ASC_NODE": 302.3589, "ARG_OF_PERICENTER": 28.1106, "MEAN_ANOMALY": 332.1229, "EPHEMERIS_TYPE": 0, "CLASSIFICATION_TYPE": "U", "NORAD_CAT_ID": 33945, "ELEMENT_SET_NO": 999, "REV_AT_EPOCH": 88046, "BSTAR": 0.0001465427, "MEAN_MOTION_DOT": 3.89e-06, "MEAN_MOTION_DDOT": 0}, "tle": {"line1": "1 33945U 93036FA  25348.87252273  .00000389  00000+0  14654-3 0  9995", "line2": "2 33945  74.0299 302.3589 0021996  28.1106 332.1229 14.34602537880465"}}, "geometry": {"type": "Point", "coordinates": [-109.49958127279031, -69.70230677406012]}}, {"type": "Feature", "properties": {"norad_id": 33948, "name": "COSMOS 2251 DEB", "group": "cosmos-2251-debris", "lat": 35.95644988751645, "lon": 108.11266100062788, "alt_km": 779.9280805458066, "timestamp": "2025-12-15T11:38:37.545255+00:00", "meta": {"OBJECT_NAME": "COSMOS 2251 DEB", "OBJECT_ID": "1993-036FD", "EPOCH": "2025-12-14T21:36:19.451232", "MEAN_MOTION": 14.35631806, "ECCENTRICITY": 0.00228112, "INCLINATION": 74.0357, "RA_OF_ASC_NODE": 301.1698, "ARG_OF_PERICENTER": 16.4429, "MEAN_ANOMALY": 343.7458, "EPHEMERIS_TYPE": 0, "CLASSIFICATION_TYPE": "U", "NORAD_CAT_ID": 33948, "ELEMENT_SET_NO": 999, "REV_AT_EPOCH": 88054, "BSTAR": 0.00021592172, "MEAN_MOTION_DOT": 5.98e-06, "MEAN_MOTION_DDOT": 0}, "tle": {"line1": "1 33948U 93036FD  25348.90022513  .00000598  00000+0  21592-3 0  9995", "line2": "2 33948  74.0357 301.1698 0022811  16.4429 343.7458 14.35631806880549"}}, "geometry": {"type": "Point", "coordinates": [108.11266100062788, 35.95644988751645]}}, {"type": "Feature", "properties": {"norad_id": 33971, "name": "COSMOS 2251 DEB", "group": "cosmos-2251-debris", "lat": -64.74801442472014, "lon": 106.05665100229326, "alt_km": 768.1772687084085, "timestamp": "2025-12-15T11:38:37.545265+00:00", "meta": {"OBJECT_NAME": "COSMOS 2251 DEB", "OBJECT_ID": "1993-036FE", "EPOCH": "2025-12-14T21:29:15.850176", "MEAN_MOTION": 14.39729069, "ECCENTRICITY": 0.00186134, "INCLINATION": 74.0248, "RA_OF_ASC_NODE": 249.7494, "ARG_OF_PERICENTER": 349.8049, "MEAN_ANOMALY": 84.6579, "EPHEMERIS_TYPE": 0, "CLASSIFICATION_TYPE": "U", "NORAD_CAT_ID": 33971, "ELEMENT_SET_NO": 999, "REV_AT_EPOCH": 88170, "BSTAR": 0.00028351252, "MEAN_MOTION_DOT": 8.63e-06, "MEAN_MOTION_DDOT": 0}, "tle": {"line1": "1 33971U 93036FE  25348.89532234  .00000863  00000+0  28351-3 0  9990", "line2": "2 33971  74.0248 249.7494 0018613 349.8049  84.6579 14.39729069881708"}}, "geometry": {"type": "Point", "coordinates": [106.05665100229326, -64.74801442472014]}}, {"type": "Feature", "properties": {"norad_id": 33972, "name": "COSMOS 2251 DEB", "group": "cosmos-2251-debris", "lat": 24.531112300349104, "lon": -1.9188528851705882, "alt_km": 853.4790921788499, "timestamp": "2025-12-15T11:38:37.545276+00:00", "meta": {"OBJECT_NAME": "COSMOS 2251 DEB", "OBJECT_ID": "1993-036FF", "EPOCH": "2025-12-14T21:51:20.079648", "MEAN_MOTION": 14.36241441, "ECCENTRICITY": 0.01233925, "INCLINATION": 73.9944, "RA_OF_ASC_NODE": 186.6661, "ARG_OF_PERICENTER": 353.9675, "MEAN_ANOMALY": 70.6039, "EPHEMERIS_TYPE": 0, "CLASSIFICATION_TYPE": "U", "NORAD_CAT_ID": 33972, "ELEMENT_SET_NO": 999, "REV_AT_EPOCH": 87105, "BSTAR": 0.00088550662, "MEAN_MOTION_DOT": 2.793e-05, "MEAN_MOTION_DDOT": 0}, "tle": {"line1": "1 33972U 93036FF  25348.91064907  .00002793  00000+0  88551-3 0  9993", "line2": "2 33972  73.9944 186.6661 0123392 353.9675  70.6039 14.36241441871050"}}, "geometry": {"type": "Point", "coordinates": [-1.9188528851705882, 24.531112300349104]}}, {"type": "Feature", "properties": {"norad_id": 33973, "name": "COSMOS 2251 DEB", "group": "cosmos-2251-debris", "lat": -4.401777099513914, "lon": 96.50259909945976, "alt_km": 737.8346136109785, "timestamp": "2025-12-15T11:38:37.545285+00:00", "meta": {"OBJECT_NAME": "COSMOS 2251 DEB", "OBJECT_ID": "1993-036FG", "EPOCH": "2025-12-14T17:55:57.692928", "MEAN_MOTION": 14.45393336, "ECCENTRICITY": 0.00473696, "INCLINATION": 74.0085, "RA_OF_ASC_NODE": 99.1448, "ARG_OF_PERICENTER": 277.1978, "MEAN_ANOMALY": 199.4389, "EPHEMERIS_TYPE": 0, "CLASSIFICATION_TYPE": "U", "NORAD_CAT_ID": 33973, "ELEMENT_SET_NO": 999, "REV_AT_EPOCH": 88629, "BSTAR": 0.00018268144, "MEAN_MOTION_DOT": 6.23e-06, "MEAN_MOTION_DDOT": 0}, "tle": {"line1": "1 33973U 93036FG  25348.74719552  .00000623  00000+0  18268-3 0  9996", "line2": "2 33973  74.0085  99.1448 0047369 277.1978 199.4389 14.45393336886293"}}, "geometry": {"type": "Point", "coordinates": [96.50259909945976, -4.401777099513914]}}, {"type": "Feature", "properties": {"norad_id": 33975, "name": "COSMOS 2251 DEB", "group": "cosmos-2251-debris", "lat": -31.917940319718532, "lon": -89.94134712322975, "alt_km": 758.5930349941473, "timestamp": "2025-12-15T11:38:37.545295+00:00", "meta": {"OBJECT_NAME": "COSMOS 2251 DEB", "OBJECT_ID": "1993-036FJ", "EPOCH": "2025-12-14T22:37:22.649664", "MEAN_MOTION": 14.00529184, "ECCENTRICITY": 0.01912538, "INCLINATION": 73.8021, "RA_OF_ASC_NODE": 80.5809, "ARG_OF_PERICENTER": 213.1379, "MEAN_ANOMALY": 145.7657, "EPHEMERIS_TYPE": 0, "CLASSIFICATION_TYPE": "U", "NORAD_CAT_ID": 33975, "ELEMENT_SET_NO": 999, "REV_AT_EPOCH": 85860, "BSTAR": 0.00063338495, "MEAN_MOTION_DOT": 1.076e-05, "MEAN_MOTION_DDOT": 0}, "tle": {"line1": "1 33975U 93036FJ  25348.94262326  .00001076  00000+0  63338-3 0  9993", "line2": "2 33975  73.8021  80.5809 0191253 213.1379 145.7657 14.00529184858603"}}, "geometry": {"type": "Point", "coordinates": [-89.94134712322975, -31.917940319718532]}}]}